#aV2007  8 26  0  0   .00000000      96 DD+AD WGS84 FIT  NGA
## 1442       .00000000   900.00000000 54338  .0000000000000
+   31     1  2  3  4  5  6  7  8  9 10 11 12 13 14 16 17 18
+         19 20 21 22 23 24 25 26 27 28 29 30 31 32  0  0  0
+          0  0  0  0  0  0  0  0  0  0  0  0  0  0  0  0  0
+          0  0  0  0  0  0  0  0  0  0  0  0  0  0  0  0  0
+          0  0  0  0  0  0  0  0  0  0  0  0  0  0  0  0  0
++         0  0  0  0  0  0  0  0  0  0  0  0  0  0  0  0  0
++         0  0  0  0  0  0  0  0  0  0  0  0  0  0  0  0  0
++         0  0  0  0  0  0  0  0  0  0  0  0  0  0  0  0  0
++         0  0  0  0  0  0  0  0  0  0  0  0  0  0  0  0  0
++         0  0  0  0  0  0  0  0  0  0  0  0  0  0  0  0  0
%c cc cc ccc ccc cccc cccc cccc cccc ccccc ccccc ccccc ccccc
%c cc cc ccc ccc cccc cccc cccc cccc ccccc ccccc ccccc ccccc
%f  0.0000000  0.000000000  0.00000000000  0.000000000000000
%f  0.0000000  0.000000000  0.00000000000  0.000000000000000
%i    0    0    0    0      0      0      0      0         0
%i    0    0    0    0      0      0      0      0         0
/*      NGA, ST. LOUIS,MO.                                  
/*   EPHEMERIS COMPUTED FROM  3 DAYS OF DATA                
/* CCCCCCCCCCCCCCCCCCCCCCCCCCCCCCCCCCCCCCCCCCCCCCCCCCCCCCCCC
/* CCCCCCCCCCCCCCCCCCCCCCCCCCCCCCCCCCCCCCCCCCCCCCCCCCCCCCCCC
*  2007  8 26  0 15   .00000000                                                 
P  1  19655.947973  16607.312518   6937.093824    148.391223                    
V  1  -8185.738833  -2796.546791  30747.160642       .023133                    
P  2 -13140.453252 -16104.690497 -16897.831804    131.743536                    
V  2    644.478593 -21086.622262  19524.218810       .027887                    
P  3  24638.946250  10385.739428   -928.625968    106.576106                    
V  3  -2165.645647   3020.841922 -30719.560859       .053134                    
P  4  -6639.803288 -24289.994753  -7916.063722      -.809864                    
V  4   3000.653656 -10203.125999  29394.808442      -.025029                    
P  5 -20955.246489  16181.307773    138.929267    327.834523                    
V  5  -1828.100100  -3122.071493  31401.602485       .370898                    
P  6 -10572.015446  12166.393703 -20926.822571    246.680134                    
V  6 -24321.900580 -11988.510529   5237.218061       .006590                    
P  7  -8092.193279  13443.956557 -21086.906725    -38.236044                    
V  7 -25283.142047 -11278.091729   2426.963845     -1.053782                    
P  8    459.207329 -26296.788373   -779.410733   -120.278771                    
V  8   2623.865191    858.600356 -32441.693482      -.015039                    
P  9 -14016.003060   6261.956654  21040.006997     84.824958                    
V  9  -3147.332075 -28007.697512   6256.220896       .016090                    
P 10 -18456.824421  -3979.036539 -18923.058343    100.759253                    
V 10  19596.846902 -13296.596281 -16107.042092      -.711886                    
P 11  14574.713840  -9018.937695  20130.129355     22.736243                    
V 11   7001.243391  25256.714623   6517.252679       .005884                    
P 12 -23704.787123  10280.975876   6103.292927    -53.938931                    
V 12   4948.545526  -6413.540989  30561.375232      -.012682                    
P 13  10041.072660 -10867.089804 -22164.250599    201.256863                    
V 13  24123.453701  13794.036798   4211.922575       .030733                    
P 14   9604.220066  18007.805125  17135.099401     37.598386                    
V 14 -19450.917576  -9214.301416  20597.167690       .021906                    
P 16  13907.165963   8442.373016 -20949.548824    171.673051                    
V 16 -22306.148483  14744.466940  -8676.642886       .023638                    
P 17  -7686.378139 -18142.531707  17892.890386     56.648177                    
V 17  20782.628079   9099.697280  18039.196205      -.013172                    
P 18 -13740.158017  18684.362361  12770.198619   -239.058833                    
V 18 -15260.929305   5869.914886 -25665.128099       .016381                    
P 19  23683.948322   4979.607565  11195.838080     60.821260                    
V 19  10820.188353   9239.136251 -27099.862479       .026151                    
P 20  22885.082912 -13223.634865   2343.539870    -28.645332                    
V 20   -849.635549   4327.988593  31381.474120      -.005499                    
P 21  -6608.480696  23464.040094  -9653.568135     78.556132                    
V 21  -3905.757472 -12619.384030 -28179.704893      -.001129                    
P 22  -1093.678586  17368.278951  20212.094333    195.616010                    
V 22 -22499.285667  11763.775277 -11459.947613       .012828                    
P 23  19175.956541  -4070.609252 -18104.218986    194.676757                    
V 23  19632.811387  11501.635881  18067.721211       .037732                    
P 24 -12645.086120  14998.778190 -17834.362745     25.563306                    
V 24  -1564.418516 -22964.251135 -17717.460142       .027176                    
P 25   8003.369128 -19873.059446 -15432.786157    419.525176                    
V 25   4901.947442  19695.010518 -22149.354730       .122238                    
P 26 -24378.853586  -8457.876287   6962.129907      4.302780                    
V 26  -7445.894304  -5714.735707 -30472.507558       .138923                    
P 27   3733.686963 -24242.249482  -9255.033422    131.044764                    
V 27   4163.833583  12357.625177 -28909.214199       .023230                    
P 28   4349.758217 -18214.209965  19041.314407     -5.680175                    
V 28  20879.399532 -11057.195604 -15970.597569      -.007979                    
P 29 -24574.492371 -10142.225286   3368.716991      5.289159                    
V 29  -2826.252465  -3188.012141 -31745.866268       .001779                    
P 30 -18316.595506  18248.862985  -6145.272334     43.640812                    
V 30  -7897.618841   1679.037038  30217.047173       .012982                    
P 31   8520.111964  22750.665760 -10451.201027     11.666553                    
V 31  -1759.523019  13700.858389  27935.084880      -.012353                    
P 32  10788.728703  11195.784099  21987.983528     29.281676                    
V 32 -23429.275979  12990.660083   5117.808819       .179232                    
EOF
